[{"OBJECT_NAME":"LEMUR-2-PETERG","OBJECT_ID":"2017-042S","EPOCH":"2026-03-09T11:34:35.656032","MEAN_MOTION":15.29611459,"ECCENTRICITY":0.00037,"INCLINATION":97.398,"RA_OF_ASC_NODE":253.6596,"ARG_OF_PERICENTER":341.6938,"MEAN_ANOMALY":18.4169,"EPHEMERIS_TYPE":0,"CLASSIFICATION_TYPE":"U","NORAD_CAT_ID":42841,"ELEMENT_SET_NO":999,"REV_AT_EPOCH":47317,"BSTAR":0.00081076471,"MEAN_MOTION_DOT":0.0002324,"MEAN_MOTION_DDOT":0},{"OBJECT_NAME":"STARLINK-33824","OBJECT_ID":"2025-089R","EPOCH":"2026-03-09T22:53:47.639040","MEAN_MOTION":15.27589482,"ECCENTRICITY":7.489e-5,"INCLINATION":42.999,"RA_OF_ASC_NODE":44.1171,"ARG_OF_PERICENTER":237.9544,"MEAN_ANOMALY":122.1235,"EPHEMERIS_TYPE":0,"CLASSIFICATION_TYPE":"U","NORAD_CAT_ID":63766,"ELEMENT_SET_NO":999,"REV_AT_EPOCH":4899,"BSTAR":0.0014147213,"MEAN_MOTION_DOT":0.00038885,"MEAN_MOTION_DDOT":0}]
